{
  "type": "FeatureCollection",
  "features": [
    {
      "type": "Feature",
      "properties": {
        "norad_id": 66863,
        "name": "STARLINK-36134",
        "group": "last-30-days",
        "lat": 42.959690737063674,
        "lon": 141.79091899009242,
        "alt_km": 391.62802849244235,
        "timestamp": "2025-12-24T16:52:40.179820+00:00",
        "meta_object_name": "STARLINK-36134",
        "meta_object_id": "2025-281R",
        "meta_epoch": "2025-12-24T06:00:02.000160",
        "meta_mean_motion": 15.58613506,
        "meta_eccentricity": 0.00010671,
        "meta_inclination": 42.9999,
        "meta_ra_of_asc_node": 52.3454,
        "meta_arg_of_pericenter": 280.5991,
        "meta_mean_anomaly": 146.5393,
        "meta_ephemeris_type": 0,
        "meta_classification_type": "U",
        "meta_norad_cat_id": 66863,
        "meta_element_set_no": 999,
        "meta_rev_at_epoch": 324,
        "meta_bstar": -0.029481717,
        "meta_mean_motion_dot": -0.02071968,
        "meta_mean_motion_ddot": 0,
        "tle_line1": "1 66863U 25281R   25358.25002315 -.02071968  00000+0 -29482-1 0  9998",
        "tle_line2": "2 66863  42.9999  52.3454 0001067 280.5991 146.5393 15.58613506  3244"
      },
      "geometry": {
        "type": "Point",
        "coordinates": [
          141.79091899009242,
          42.959690737063674
        ]
      }
    },
    {
      "type": "Feature",
      "properties": {
        "norad_id": 66864,
        "name": "STARLINK-36070",
        "group": "last-30-days",
        "lat": 42.881474931626634,
        "lon": 144.40735015027417,
        "alt_km": 391.82705471499503,
        "timestamp": "2025-12-24T16:52:40.179830+00:00",
        "meta_object_name": "STARLINK-36070",
        "meta_object_id": "2025-281S",
        "meta_epoch": "2025-12-24T06:00:02.000160",
        "meta_mean_motion": 15.5861189,
        "meta_eccentricity": 0.00013559,
        "meta_inclination": 43.0002,
        "meta_ra_of_asc_node": 52.34,
        "meta_arg_of_pericenter": 282.7641,
        "meta_mean_anomaly": 146.2915,
        "meta_ephemeris_type": 0,
        "meta_classification_type": "U",
        "meta_norad_cat_id": 66864,
        "meta_element_set_no": 999,
        "meta_rev_at_epoch": 327,
        "meta_bstar": -0.029421795,
        "meta_mean_motion_dot": -0.02068282,
        "meta_mean_motion_ddot": 0,
        "tle_line1": "1 66864U 25281S   25358.25002315 -.02068282  00000+0 -29422-1 0  9998",
        "tle_line2": "2 66864  43.0002  52.3400 0001355 282.7641 146.2915 15.58611890  3273"
      },
      "geometry": {
        "type": "Point",
        "coordinates": [
          144.40735015027417,
          42.881474931626634
        ]
      }
    },
    {
      "type": "Feature",
      "properties": {
        "norad_id": 66865,
        "name": "STARLINK-36117",
        "group": "last-30-days",
        "lat": 42.54680643911772,
        "lon": 149.5971649309962,
        "alt_km": 391.6459443847325,
        "timestamp": "2025-12-24T16:52:40.179840+00:00",
        "meta_object_name": "STARLINK-36117",
        "meta_object_id": "2025-281T",
        "meta_epoch": "2025-12-24T06:00:02.000160",
        "meta_mean_motion": 15.58616274,
        "meta_eccentricity": 9.69e-05,
        "meta_inclination": 42.9998,
        "meta_ra_of_asc_node": 52.3313,
        "meta_arg_of_pericenter": 276.4347,
        "meta_mean_anomaly": 156.4522,
        "meta_ephemeris_type": 0,
        "meta_classification_type": "U",
        "meta_norad_cat_id": 66865,
        "meta_element_set_no": 999,
        "meta_rev_at_epoch": 324,
        "meta_bstar": -0.029517443,
        "meta_mean_motion_dot": -0.02074342,
        "meta_mean_motion_ddot": 0,
        "tle_line1": "1 66865U 25281T   25358.25002315 -.02074342  00000+0 -29517-1 0  9998",
        "tle_line2": "2 66865  42.9998  52.3313 0000969 276.4347 156.4522 15.58616274  3247"
      },
      "geometry": {
        "type": "Point",
        "coordinates": [
          149.5971649309962,
          42.54680643911772
        ]
      }
    },
    {
      "type": "Feature",
      "properties": {
        "norad_id": 66866,
        "name": "STARLINK-36126",
        "group": "last-30-days",
        "lat": 42.29161548214151,
        "lon": 152.1728448120495,
        "alt_km": 391.75709806401755,
        "timestamp": "2025-12-24T16:52:40.179852+00:00",
        "meta_object_name": "STARLINK-36126",
        "meta_object_id": "2025-281U",
        "meta_epoch": "2025-12-24T06:00:02.000160",
        "meta_mean_motion": 15.58613079,
        "meta_eccentricity": 0.00010841,
        "meta_inclination": 43,
        "meta_ra_of_asc_node": 52.3258,
        "meta_arg_of_pericenter": 282.3396,
        "meta_mean_anomaly": 152.4662,
        "meta_ephemeris_type": 0,
        "meta_classification_type": "U",
        "meta_norad_cat_id": 66866,
        "meta_element_set_no": 999,
        "meta_rev_at_epoch": 327,
        "meta_bstar": -0.029450903,
        "meta_mean_motion_dot": -0.02070016,
        "meta_mean_motion_ddot": 0,
        "tle_line1": "1 66866U 25281U   25358.25002315 -.02070016  00000+0 -29451-1 0  9990",
        "tle_line2": "2 66866  43.0000  52.3258 0001084 282.3396 152.4662 15.58613079  3275"
      },
      "geometry": {
        "type": "Point",
        "coordinates": [
          152.1728448120495,
          42.29161548214151
        ]
      }
    },
    {
      "type": "Feature",
      "properties": {
        "norad_id": 66867,
        "name": "STARLINK-36101",
        "group": "last-30-days",
        "lat": 41.97899203963592,
        "lon": 154.7252536714477,
        "alt_km": 391.89569371595644,
        "timestamp": "2025-12-24T16:52:40.179863+00:00",
        "meta_object_name": "STARLINK-36101",
        "meta_object_id": "2025-281V",
        "meta_epoch": "2025-12-24T06:00:02.000160",
        "meta_mean_motion": 15.58608879,
        "meta_eccentricity": 0.00012393,
        "meta_inclination": 43,
        "meta_ra_of_asc_node": 52.3213,
        "meta_arg_of_pericenter": 284.1258,
        "meta_mean_anomaly": 152.5975,
        "meta_ephemeris_type": 0,
        "meta_classification_type": "U",
        "meta_norad_cat_id": 66867,
        "meta_element_set_no": 999,
        "meta_rev_at_epoch": 307,
        "meta_bstar": -0.029309414,
        "meta_mean_motion_dot": -0.02060941,
        "meta_mean_motion_ddot": 0,
        "tle_line1": "1 66867U 25281V   25358.25002315 -.02060941  00000+0 -29309-1 0  9999",
        "tle_line2": "2 66867  43.0000  52.3213 0001239 284.1258 152.5975 15.58608879  3074"
      },
      "geometry": {
        "type": "Point",
        "coordinates": [
          154.7252536714477,
          41.97899203963592
        ]
      }
    },
    {
      "type": "Feature",
      "properties": {
        "norad_id": 66868,
        "name": "STARLINK-36108",
        "group": "last-30-days",
        "lat": 41.610604697431306,
        "lon": 157.24826265013795,
        "alt_km": 391.99637825085665,
        "timestamp": "2025-12-24T16:52:40.179873+00:00",
        "meta_object_name": "STARLINK-36108",
        "meta_object_id": "2025-281W",
        "meta_epoch": "2025-12-24T06:00:02.000160",
        "meta_mean_motion": 15.58605436,
        "meta_eccentricity": 0.00013101,
        "meta_inclination": 43.0001,
        "meta_ra_of_asc_node": 52.3164,
        "meta_arg_of_pericenter": 285.6081,
        "meta_mean_anomaly": 153.0339,
        "meta_ephemeris_type": 0,
        "meta_classification_type": "U",
        "meta_norad_cat_id": 66868,
        "meta_element_set_no": 999,
        "meta_rev_at_epoch": 307,
        "meta_bstar": -0.029230967,
        "meta_mean_motion_dot": -0.02017382,
        "meta_mean_motion_ddot": 0,
        "tle_line1": "1 66868U 25281W   25358.25002315 -.02017382  00000+0 -29231-1 0  9995",
        "tle_line2": "2 66868  43.0001  52.3164 0001310 285.6081 153.0339 15.58605436  3077"
      },
      "geometry": {
        "type": "Point",
        "coordinates": [
          157.24826265013795,
          41.610604697431306
        ]
      }
    },
    {
      "type": "Feature",
      "properties": {
        "norad_id": 66869,
        "name": "STARLINK-36092",
        "group": "last-30-days",
        "lat": 41.188350019044236,
        "lon": 159.73482099493535,
        "alt_km": 392.0511580438615,
        "timestamp": "2025-12-24T16:52:40.179884+00:00",
        "meta_object_name": "STARLINK-36092",
        "meta_object_id": "2025-281X",
        "meta_epoch": "2025-12-24T06:00:02.000160",
        "meta_mean_motion": 15.58612899,
        "meta_eccentricity": 0.00012502,
        "meta_inclination": 43.0001,
        "meta_ra_of_asc_node": 52.3111,
        "meta_arg_of_pericenter": 284.2523,
        "meta_mean_anomaly": 156.3049,
        "meta_ephemeris_type": 0,
        "meta_classification_type": "U",
        "meta_norad_cat_id": 66869,
        "meta_element_set_no": 999,
        "meta_rev_at_epoch": 327,
        "meta_bstar": -0.029449584,
        "meta_mean_motion_dot": -0.02070028,
        "meta_mean_motion_ddot": 0,
        "tle_line1": "1 66869U 25281X   25358.25002315 -.02070028  00000+0 -29450-1 0  9995",
        "tle_line2": "2 66869  43.0001  52.3111 0001250 284.2523 156.3049 15.58612899  3276"
      },
      "geometry": {
        "type": "Point",
        "coordinates": [
          159.73482099493535,
          41.188350019044236
        ]
      }
    }
  ]
}